STARLINK-36117          
1 66865U 25281T   26068.19492460  .00025471  00000+0  93134-3 0  9997
2 66865  43.0016 345.9355 0001709 245.5337 114.5336 15.27600059 16114
2025-313BD              
1 67299U 25313BD  26068.62968741  .00081010  00000+0  27634-2 0  9995
2 67299  97.3970 145.2850 0007287 333.4514  26.6352 15.30002360 10838
